GLOBALSTAR M068         
1 32266U 07048D   24179.73678051 -.00000047  00000+0  31421-3 0  9993
2 32266  51.9899 302.7135 0001520  97.9984  50.4796 12.62792453772779
GLOBALSTAR M079         
1 37188U 10054A   24179.20392838 -.00000087  00000+0  92593-4 0  9992
2 37188  52.0021 140.4102 0000172 336.6151 125.5721 12.62271230631623
GLOBALSTAR M074         
1 37189U 10054B   24179.64259994 -.00000095  00000+0  51255-4 0  9995
2 37189  51.9998 138.4535 0000367  30.4126 145.2159 12.62269785632288
GLOBALSTAR M076         
1 37190U 10054C   24179.66801624 -.00000102  00000+0  89978-5 0  9995
2 37190  52.0012 138.5137 0000544 336.1100 196.0416 12.62262253632006
GLOBALSTAR M077         
1 37191U 10054D   24179.95123097 -.00000079  00000+0  14002-3 0  9996
2 37191  52.0079  94.4058 0000670  44.2383  35.4158 12.62274126632418
GLOBALSTAR M075         
1 37192U 10054E   24179.76040926 -.00000108  00000+0 -26349-4 0  9997
2 37192  51.9917 180.6878 0000047 127.2101  44.8919 12.62261218631241
GLOBALSTAR M073         
1 37193U 10054F   24179.52287565 -.00000089  00000+0  80308-4 0  9996
2 37193  52.0063  94.9605 0000558  34.8288 135.8924 12.62266330633044
GLOBALSTAR M083         
1 37739U 11033A   24179.91713885 -.00000098  00000+0  29953-4 0  9991
2 37739  51.9870  42.9742 0000782  89.7997  15.3769 12.62261388602115
GLOBALSTAR M088         
1 37740U 11033B   24179.63295822 -.00000089  00000+0  84939-4 0  9993
2 37740  51.9750 309.6302 0000819 129.8193 243.2146 12.62264548597625
GLOBALSTAR M091         
1 37741U 11033C   24179.56737993 -.00000084  00000+0  10976-3 0  9990
2 37741  52.0002 272.7537 0000849 146.5147 226.9914 12.62264222598403
GLOBALSTAR M085         
1 37742U 11033D   24179.39536966 -.00000098  00000+0  33590-4 0  9992
2 37742  51.9851 224.6278 0000498 166.7175 206.2594 12.62263045598897
GLOBALSTAR M081         
1 37743U 11033E   24179.69071052 -.00000096  00000+0  41762-4 0  9994
2 37743  51.9939 226.2976 0000485 190.9369 323.8457 12.62266415599077
GLOBALSTAR M089         
1 37744U 11033F   24179.32327903 -.00000099  00000+0  26056-4 0  9996
2 37744  51.9900 181.7116 0000330 329.0317 133.8760 12.62265424599877
GLOBALSTAR M084         
1 38040U 11080A   24179.94989815 -.00000088  00000+0  88131-4 0  9992
2 38040  52.0024  46.9007 0000900  55.7918 317.4525 12.62263838577939
GLOBALSTAR M080         
1 38041U 11080B   24179.94296773 -.00000076  00000+0  15605-3 0  9999
2 38041  52.0077  48.4035 0000756  40.4952  61.6852 12.62262364578052
GLOBALSTAR M082         
1 38042U 11080C   24179.88732748 -.00000089  00000+0  83142-4 0  9996
2 38042  52.0093   3.9832 0001358 108.1751  40.3515 12.62270707578757
GLOBALSTAR M092         
1 38043U 11080D   24179.92428812 -.00000084  00000+0  11124-3 0  9991
2 38043  52.0086  94.2258 0000727  49.6611  27.6591 12.62263054577217
GLOBALSTAR M090         
1 38044U 11080E   24179.80492594 -.00000097  00000+0  38366-4 0  9999
2 38044  51.9904 358.4992 0001041 106.0639 267.7445 12.62264331578869
GLOBALSTAR M086         
1 38045U 11080F   24179.75189441 -.00000085  00000+0  10405-3 0  9998
2 38045  51.9915 359.1829 0000345 181.2473 192.2959 12.62263724578807
GLOBALSTAR M097         
1 39072U 13005A   24179.61755812 -.00000093  00000+0  61832-4 0  9994
2 39072  52.0052 273.7838 0000700 151.8741 208.2163 12.62263901526039
GLOBALSTAR M093         
1 39073U 13005B   24179.59087516 -.00000060  00000+0  24658-3 0  9999
2 39073  51.9814 267.7340 0000765 164.3620 195.7270 12.62275541525986
GLOBALSTAR M094         
1 39074U 13005C   24179.74915434 -.00000102  00000+0  86735-5 0  9999
2 39074  51.9927 181.2765 0000220 206.5694 153.5161 12.62267356527617
GLOBALSTAR M096         
1 39075U 13005D   24179.52475400 -.00000096  00000+0  40640-4 0  9996
2 39075  52.0057 230.1989 0000636 172.9648 187.1227 12.62267304526508
GLOBALSTAR M078         
1 39076U 13005E   24179.73611289 -.00000220  00000+0 -64829-3 0  9991
2 39076  51.9892 314.5482 0001670 113.4968 246.6074 12.62271112525156
GLOBALSTAR M095         
1 39077U 13005F   24179.92040827 -.00000105  00000+0 -70282-5 0  9991
2 39077  51.9814 311.3562 0001345 132.8598 227.2382 12.62264093525032
GLOBALSTAR M087         
1 52888U 22064A   24179.71944194 -.00000115  00000+0  25008-4 0  9993
2 52888  51.9733 171.6555 0009593  32.3692 327.7796 13.37577185 98939
